{
  "type": "FeatureCollection",
  "features": [
    {
      "type": "Feature",
      "properties": {
        "norad_id": 54259,
        "name": "EUTELSAT 10B",
        "group": "eutelsat",
        "lat": 0.047890740168081584,
        "lon": -164.18028876421204,
        "alt_km": 35783.883521304815,
        "timestamp": "2025-12-11T07:02:23.405387+00:00",
        "meta_object_name": "EUTELSAT 10B",
        "meta_object_id": "2022-157A",
        "meta_epoch": "2025-12-10T21:35:38.732640",
        "meta_mean_motion": 1.00269549,
        "meta_eccentricity": 7.496e-05,
        "meta_inclination": 0.0622,
        "meta_ra_of_asc_node": 98.9425,
        "meta_arg_of_pericenter": 69.2695,
        "meta_mean_anomaly": 245.5365,
        "meta_ephemeris_type": 0,
        "meta_classification_type": "U",
        "meta_norad_cat_id": 54259,
        "meta_element_set_no": 999,
        "meta_rev_at_epoch": 1113,
        "meta_bstar": 0,
        "meta_mean_motion_dot": 7.3e-07,
        "meta_mean_motion_ddot": 0,
        "tle_line1": "1 54259U 22157A   25344.89975385  .00000073  00000+0  00000+0 0  9992",
        "tle_line2": "2 54259   0.0622  98.9425 0000749  69.2695 245.5365  1.00269549 11133"
      },
      "geometry": {
        "type": "Point",
        "coordinates": [
          -164.18028876421204,
          0.047890740168081584
        ]
      }
    },
    {
      "type": "Feature",
      "properties": {
        "norad_id": 59346,
        "name": "EUTELSAT 36D",
        "group": "eutelsat",
        "lat": -0.02937438769794946,
        "lon": -138.30440165238147,
        "alt_km": 35786.493819540934,
        "timestamp": "2025-12-11T07:02:23.405399+00:00",
        "meta_object_name": "EUTELSAT 36D",
        "meta_object_id": "2024-059A",
        "meta_epoch": "2025-12-10T21:19:38.841600",
        "meta_mean_motion": 1.00273055,
        "meta_eccentricity": 5.338e-05,
        "meta_inclination": 0.0177,
        "meta_ra_of_asc_node": 350.9173,
        "meta_arg_of_pericenter": 342.2646,
        "meta_mean_anomaly": 102.4367,
        "meta_ephemeris_type": 0,
        "meta_classification_type": "U",
        "meta_norad_cat_id": 59346,
        "meta_element_set_no": 999,
        "meta_rev_at_epoch": 625,
        "meta_bstar": 0,
        "meta_mean_motion_dot": 0,
        "meta_mean_motion_ddot": 0,
        "tle_line1": "1 59346U 24059A   25344.88864400  .00000000  00000+0  00000+0 0  9991",
        "tle_line2": "2 59346   0.0177 350.9173 0000533 342.2646 102.4367  1.00273055  6259"
      },
      "geometry": {
        "type": "Point",
        "coordinates": [
          -138.30440165238147,
          -0.02937438769794946
        ]
      }
    }
  ]
}